ONEWEB-0291             
1 49081U 21075G   24186.88097533  .00000045  00000+0  82317-4 0  9994
2 49081  87.9173 147.6861 0001841  84.2724 275.8617 13.17648742139803
ONEWEB-0293             
1 49082U 21075H   24186.90681498  .00000014  00000+0  17937-5 0  9990
2 49082  87.9178 147.6957 0001789  79.1211 281.0122 13.17649142139838
ONEWEB-0294             
1 49083U 21075J   24186.89309647 -.00000124  00000+0 -37896-3 0  9990
2 49083  87.8948 132.5082 0001394  70.9222 289.2057 13.12446308141146
ONEWEB-0295             
1 49084U 21075K   24187.13623390  .00000031  00000+0  45926-4 0  9992
2 49084  87.9180 147.6280 0001709  92.1510 267.9817 13.17647655140788
ONEWEB-0296             
1 49085U 21075L   24187.40730458 -.00000273  00000+0 -79314-3 0  9994
2 49085  87.8949 132.4073 0001317  90.3279 269.8000 13.12442859142208
ONEWEB-0297             
1 49086U 21075M   24187.20941496  .00000203  00000+0  52942-3 0  9998
2 49086  87.8957 132.4544 0002082  83.0903 277.0462 13.12444963142788
ONEWEB-0298             
1 49087U 21075N   24187.13947118  .00000039  00000+0  67470-4 0  9998
2 49087  87.9180 147.6459 0002085  89.1417 270.9953 13.17647787140847
ONEWEB-0299             
1 49088U 21075P   24187.44483948  .00000009  00000+0 -10554-4 0  9998
2 49088  87.9175 147.5540 0001987  91.2199 268.9160 13.17650567140840
